sat38737
1 38737U 12041E   20046.82687493 -.00000012  00000-0 -81926-4 0  9990
2 38737  82.4795 306.7580 0224329 281.0957  76.4995 12.81811184353419
